*******************************************************************************
Ephemeris / WWW_USER Mon Mar 24 08:53:25 2025 Pasadena, USA      / Horizons    
*******************************************************************************
Target body name: (2018 PC20)                     {source: JPL#4}
Center body name: Earth (399)                     {source: DE441}
Center-site name: Mauna Kea
*******************************************************************************
Start time      : A.D. 2018-Dec-22 03:58:00.0000 UT      
Stop  time      : A.D. 2018-Dec-22 16:42:00.0000 UT      
Step-size       : 1 minutes
*******************************************************************************
Target pole/equ : undefined
Target radii    : undefined                                                    
Center geodetic : 204.5278, 19.8260847, 4.21024   {E-lon(deg),Lat(deg),Alt(km)}
Center cylindric: 204.5278, 6006.35451, 2151.0229 {E-lon(deg),Dxy(km),Dz(km)}
Center pole/equ : ITRF93                          {East-longitude positive}
Center radii    : 6378.137, 6378.137, 6356.752 km {Equator_a, b, pole_c}       
Target primary  : Sun
Vis. interferer : MOON (R_eq= 1737.400) km        {source: DE441}
Rel. light bend : Sun                             {source: DE441}
Rel. lght bnd GM: 1.3271E+11 km^3/s^2                                          
Small-body perts: Yes                             {source: SB441-N16}
Atmos refraction: NO (AIRLESS)
RA format       : HMS
Time format     : CAL 
Calendar mode   : Mixed Julian/Gregorian
RTS-only print  : NO       
EOP file        : eop.250321.p250617                                           
EOP coverage    : DATA-BASED 1962-JAN-20 TO 2025-MAR-21. PREDICTS-> 2025-JUN-16
Units conversion: 1 au= 149597870.700 km, c= 299792.458 km/s, 1 day= 86400.0 s 
Table cut-offs 1: Elevation (-90.0deg=NO ),Airmass (>38.000=NO), Daylight (YES)
Table cut-offs 2: Solar elongation (  0.0,180.0=NO ),Local Hour Angle( 0.0=NO )
Table cut-offs 3: RA/DEC angular rate (     0.0=NO )                           
*******************************************************************************
Initial IAU76/J2000 heliocentric ecliptic osculating elements (au, days, deg.):
  EPOCH=  2458343.5 ! 2018-Aug-13.00 (TDB)         Residual RMS= .24519        
   EC= .404352607301711    QR= 1.018354806317198   TP= 2458318.6524357731      
   OM= 139.299704166656    W=  153.5303944744985   IN= 8.986086735514593       
  Equivalent ICRF heliocentric cartesian coordinates (au, au/d):
   X= 8.116079301925467E-01  Y=-6.140581064636024E-01  Z=-2.698058679324596E-01
  VX= 1.436448164656351E-02 VY= 1.329561442287599E-02 VZ= 2.429594529488231E-03
Asteroid physical parameters (km, seconds, rotational period in hours):        
   GM= n.a.                RAD= n.a.               ROTPER= n.a.                
   H= 25.2                 G= .150                 B-V= n.a.                   
                           ALBEDO= n.a.            STYP= n.a.                  
*******************************************************************************
 Date__(UT)__HR:MN     R.A._________(ICRF)_________DEC
******************************************************
$$SOE
 2018-Dec-22 12:10  m  01 14 30.830826 -06 06 32.46537
 2018-Dec-22 12:11  m  01 14 30.885304 -06 06 31.80726
 2018-Dec-22 12:12  m  01 14 30.939791 -06 06 31.14915
 2018-Dec-22 12:13  m  01 14 30.994286 -06 06 30.49104
 2018-Dec-22 12:14  m  01 14 31.048791 -06 06 29.83294
 2018-Dec-22 12:15  m  01 14 31.103304 -06 06 29.17484
 2018-Dec-22 12:16  m  01 14 31.157826 -06 06 28.51675
 2018-Dec-22 12:17  m  01 14 31.212357 -06 06 27.85866
 2018-Dec-22 12:18  m  01 14 31.266897 -06 06 27.20058
 2018-Dec-22 12:19  m  01 14 31.321446 -06 06 26.54250
 2018-Dec-22 12:20  m  01 14 31.376004 -06 06 25.88443
 2018-Dec-22 12:21  m  01 14 31.430570 -06 06 25.22636
 2018-Dec-22 12:22  m  01 14 31.485146 -06 06 24.56830
 2018-Dec-22 12:23  m  01 14 31.539730 -06 06 23.91024
 2018-Dec-22 12:24  m  01 14 31.594323 -06 06 23.25218
 2018-Dec-22 12:25  m  01 14 31.648925 -06 06 22.59413
 2018-Dec-22 12:26  m  01 14 31.703535 -06 06 21.93609
 2018-Dec-22 12:27  m  01 14 31.758155 -06 06 21.27805
 2018-Dec-22 12:28  m  01 14 31.812783 -06 06 20.62002
 2018-Dec-22 12:29  m  01 14 31.867420 -06 06 19.96199
 2018-Dec-22 12:30  m  01 14 31.922066 -06 06 19.30397
 2018-Dec-22 12:31  m  01 14 31.976720 -06 06 18.64595
 2018-Dec-22 12:32  m  01 14 32.031383 -06 06 17.98794
 2018-Dec-22 12:33  m  01 14 32.086055 -06 06 17.32993
 2018-Dec-22 12:34  m  01 14 32.140736 -06 06 16.67193
 2018-Dec-22 12:35  m  01 14 32.195426 -06 06 16.01393
 2018-Dec-22 12:36  m  01 14 32.250124 -06 06 15.35594
 2018-Dec-22 12:37  m  01 14 32.304830 -06 06 14.69796
 2018-Dec-22 12:38  m  01 14 32.359546 -06 06 14.03998
 2018-Dec-22 12:39  m  01 14 32.414270 -06 06 13.38200
 2018-Dec-22 12:40  m  01 14 32.469003 -06 06 12.72404
 2018-Dec-22 12:41  m  01 14 32.523745 -06 06 12.06607
 2018-Dec-22 12:42  m  01 14 32.578495 -06 06 11.40812
 2018-Dec-22 12:43  m  01 14 32.633254 -06 06 10.75017
 2018-Dec-22 12:44  m  01 14 32.688021 -06 06 10.09223
 2018-Dec-22 12:45  m  01 14 32.742797 -06 06 09.43429
 2018-Dec-22 12:46  m  01 14 32.797582 -06 06 08.77636
 2018-Dec-22 12:47  m  01 14 32.852375 -06 06 08.11843
 2018-Dec-22 12:48  m  01 14 32.907177 -06 06 07.46052
 2018-Dec-22 12:49  m  01 14 32.961987 -06 06 06.80260
 2018-Dec-22 12:50  m  01 14 33.016806 -06 06 06.14470
 2018-Dec-22 12:51  m  01 14 33.071633 -06 06 05.48680
 2018-Dec-22 12:52  m  01 14 33.126469 -06 06 04.82891
 2018-Dec-22 12:53  m  01 14 33.181314 -06 06 04.17102
 2018-Dec-22 12:54  m  01 14 33.236167 -06 06 03.51314
 2018-Dec-22 12:55  m  01 14 33.291028 -06 06 02.85527
 2018-Dec-22 12:56  m  01 14 33.345898 -06 06 02.19740
 2018-Dec-22 12:57  m  01 14 33.400776 -06 06 01.53954
 2018-Dec-22 12:58  m  01 14 33.455663 -06 06 00.88169
 2018-Dec-22 12:59  m  01 14 33.510558 -06 06 00.22385
 2018-Dec-22 13:00  m  01 14 33.565462 -06 05 59.56601
 2018-Dec-22 13:01  m  01 14 33.620374 -06 05 58.90818
 2018-Dec-22 13:02  m  01 14 33.675294 -06 05 58.25035
 2018-Dec-22 13:03  m  01 14 33.730223 -06 05 57.59254
 2018-Dec-22 13:04  m  01 14 33.785160 -06 05 56.93473
 2018-Dec-22 13:05  m  01 14 33.840106 -06 05 56.27692
 2018-Dec-22 13:06  m  01 14 33.895059 -06 05 55.61913
 2018-Dec-22 13:07  m  01 14 33.950021 -06 05 54.96134
 2018-Dec-22 13:08  m  01 14 34.004992 -06 05 54.30356
 2018-Dec-22 13:09  m  01 14 34.059970 -06 05 53.64579
 2018-Dec-22 13:10  m  01 14 34.114957 -06 05 52.98802
 2018-Dec-22 13:11  m  01 14 34.169953 -06 05 52.33026
 2018-Dec-22 13:12  m  01 14 34.224956 -06 05 51.67251
 2018-Dec-22 13:13  m  01 14 34.279968 -06 05 51.01477
 2018-Dec-22 13:14  m  01 14 34.334987 -06 05 50.35704
 2018-Dec-22 13:15  m  01 14 34.390015 -06 05 49.69931
 2018-Dec-22 13:16  m  01 14 34.445051 -06 05 49.04159
 2018-Dec-22 13:17  m  01 14 34.500096 -06 05 48.38388
 2018-Dec-22 13:18  m  01 14 34.555148 -06 05 47.72618
 2018-Dec-22 13:19  m  01 14 34.610209 -06 05 47.06848
 2018-Dec-22 13:20  m  01 14 34.665277 -06 05 46.41080
 2018-Dec-22 13:21  m  01 14 34.720354 -06 05 45.75312
 2018-Dec-22 13:22  m  01 14 34.775439 -06 05 45.09545
 2018-Dec-22 13:23  m  01 14 34.830532 -06 05 44.43778
 2018-Dec-22 13:24  m  01 14 34.885633 -06 05 43.78013
 2018-Dec-22 13:25  m  01 14 34.940741 -06 05 43.12248
 2018-Dec-22 13:26  m  01 14 34.995858 -06 05 42.46484
 2018-Dec-22 13:27  m  01 14 35.050983 -06 05 41.80722
 2018-Dec-22 13:28  m  01 14 35.106116 -06 05 41.14960
 2018-Dec-22 13:29  m  01 14 35.161257 -06 05 40.49198
 2018-Dec-22 13:30  m  01 14 35.216405 -06 05 39.83438
 2018-Dec-22 13:31  m  01 14 35.271562 -06 05 39.17678
 2018-Dec-22 13:32  m  01 14 35.326726 -06 05 38.51920
 2018-Dec-22 13:33  m  01 14 35.381898 -06 05 37.86162
 2018-Dec-22 13:34  m  01 14 35.437078 -06 05 37.20405
 2018-Dec-22 13:35  m  01 14 35.492266 -06 05 36.54649
 2018-Dec-22 13:36  m  01 14 35.547462 -06 05 35.88894
 2018-Dec-22 13:37  m  01 14 35.602666 -06 05 35.23140
 2018-Dec-22 13:38  m  01 14 35.657877 -06 05 34.57387
 2018-Dec-22 13:39  m  01 14 35.713096 -06 05 33.91634
 2018-Dec-22 13:40  m  01 14 35.768323 -06 05 33.25883
 2018-Dec-22 13:41  m  01 14 35.823557 -06 05 32.60132
 2018-Dec-22 13:42  m  01 14 35.878799 -06 05 31.94383
 2018-Dec-22 13:43  m  01 14 35.934049 -06 05 31.28634
 2018-Dec-22 13:44  m  01 14 35.989306 -06 05 30.62886
 2018-Dec-22 13:45  m  01 14 36.044571 -06 05 29.97139
 2018-Dec-22 13:46  m  01 14 36.099844 -06 05 29.31393
 2018-Dec-22 13:47  m  01 14 36.155124 -06 05 28.65648
 2018-Dec-22 13:48  m  01 14 36.210412 -06 05 27.99904
 2018-Dec-22 13:49  m  01 14 36.265707 -06 05 27.34161
 2018-Dec-22 13:50  m  01 14 36.321010 -06 05 26.68419
 2018-Dec-22 13:51  m  01 14 36.376320 -06 05 26.02678
 2018-Dec-22 13:52  m  01 14 36.431638 -06 05 25.36938
 2018-Dec-22 13:53  m  01 14 36.486963 -06 05 24.71199
 2018-Dec-22 13:54  m  01 14 36.542296 -06 05 24.05460
 2018-Dec-22 13:55  m  01 14 36.597636 -06 05 23.39723
 2018-Dec-22 13:56  m  01 14 36.652983 -06 05 22.73987
 2018-Dec-22 13:57  m  01 14 36.708338 -06 05 22.08252
 2018-Dec-22 13:58  m  01 14 36.763700 -06 05 21.42517
 2018-Dec-22 13:59  m  01 14 36.819070 -06 05 20.76784
 2018-Dec-22 14:00  m  01 14 36.874446 -06 05 20.11052
 2018-Dec-22 14:01  m  01 14 36.929830 -06 05 19.45321
 2018-Dec-22 14:02  m  01 14 36.985222 -06 05 18.79590
 2018-Dec-22 14:03  m  01 14 37.040620 -06 05 18.13861
 2018-Dec-22 14:04  m  01 14 37.096026 -06 05 17.48133
 2018-Dec-22 14:05  m  01 14 37.151438 -06 05 16.82406
 2018-Dec-22 14:06  m  01 14 37.206858 -06 05 16.16680
 2018-Dec-22 14:07  m  01 14 37.262285 -06 05 15.50955
 2018-Dec-22 14:08  m  01 14 37.317720 -06 05 14.85231
 2018-Dec-22 14:09  m  01 14 37.373161 -06 05 14.19508
 2018-Dec-22 14:10  m  01 14 37.428609 -06 05 13.53786
 2018-Dec-22 14:11  m  01 14 37.484065 -06 05 12.88065
 2018-Dec-22 14:12  m  01 14 37.539527 -06 05 12.22345
